O3B MPOWER F1           
1 54755U 22174A   23268.44383348 -.00000020  00000+0  00000+0 0  9991
2 54755   0.0476  17.3989 0004890 181.5974  81.6625  5.00118393 15541
